[{"OBJECT_NAME":"JACKAL X-1L-002","OBJECT_ID":"2024-043AN","EPOCH":"2026-03-09T23:11:34.268640","MEAN_MOTION":15.42550186,"ECCENTRICITY":0.00077419,"INCLINATION":97.5416,"RA_OF_ASC_NODE":211.0971,"ARG_OF_PERICENTER":201.4891,"MEAN_ANOMALY":158.6032,"EPHEMERIS_TYPE":0,"CLASSIFICATION_TYPE":"U","NORAD_CAT_ID":59134,"ELEMENT_SET_NO":999,"REV_AT_EPOCH":11230,"BSTAR":0.00054451815,"MEAN_MOTION_DOT":0.00023615,"MEAN_MOTION_DDOT":0},{"OBJECT_NAME":"NOAA 16 DEB","OBJECT_ID":"2000-055RJ","EPOCH":"2026-03-09T05:33:49.273920","MEAN_MOTION":15.3473827,"ECCENTRICITY":0.00201356,"INCLINATION":98.8603,"RA_OF_ASC_NODE":346.753,"ARG_OF_PERICENTER":100.321,"MEAN_ANOMALY":260.03,"EPHEMERIS_TYPE":0,"CLASSIFICATION_TYPE":"U","NORAD_CAT_ID":42366,"ELEMENT_SET_NO":999,"REV_AT_EPOCH":53004,"BSTAR":0.012036716,"MEAN_MOTION_DOT":0.00430695,"MEAN_MOTION_DDOT":0}]
